TDRS 11                 
1 39070U 13004A   26062.73190270  .00000068  00000+0  00000+0 0  9994
2 39070   3.3663  29.3390 0003936 350.2034 231.0730  1.00276330 45632
TDRS 12                 
1 39504U 14004A   26062.79230183 -.00000281  00000+0  00000+0 0  9999
2 39504   3.8752  17.2290 0003953 267.2789 121.3771  1.00270286 43229
GPM-CORE                
1 39574U 14009C   26062.75373807  .00015067  00000+0  32596-3 0  9994
2 39574  64.9737 301.3705 0012446 264.4988  95.4733 15.44599289681522
MMS 1                   
1 40482U 15011A   26062.91670139 -.00001995  00000+0  00000+0 0  9991
2 40482  70.7180 350.2284 8422826 165.3132   0.8896  0.28063992  1337
MMS 2                   
1 40483U 15011B   26062.91670139 -.00001994  00000+0  00000+0 0  9991
2 40483  70.7187 350.2305 8423305 165.3185   0.8740  0.28070726  1331
MMS 3                   
1 40484U 15011C   26062.91670139 -.00001995  00000+0  00000+0 0  9993
2 40484  70.7206 350.2352 8422870 165.3137   0.8818  0.28063036  1331
MMS 4                   
1 40485U 15011D   26062.91670139 -.00001994  00000+0  00000+0 0  9993
2 40485  70.7191 350.2303 8422113 165.3201   0.8683  0.28070154  1332
TDRS 13                 
1 42915U 17047A   26062.79819519 -.00000111  00000+0  00000+0 0  9997
2 42915   3.4295   0.0500 0010166  99.2582 338.1197  1.00272139 31292
NOAA 20 (JPSS-1)        
1 43013U 17073A   26062.83715056  .00000099  00000+0  68042-4 0  9991
2 43013  98.7686   3.2827 0000931 145.4930 214.6307 14.19534278429527
